{
  "type": "FeatureCollection",
  "features": [
    {
      "type": "Feature",
      "properties": {
        "norad_id": 65731,
        "name": "1998-067XK",
        "group": "stations",
        "lat": -14.934917656617078,
        "lon": 93.32526850616593,
        "alt_km": 368.38748457611746,
        "timestamp": "2025-12-18T23:35:47.807776+00:00",
        "meta_object_name": "1998-067XK",
        "meta_object_id": "1998-067XK",
        "meta_epoch": "2025-12-18T14:29:38.955840",
        "meta_mean_motion": 15.66848038,
        "meta_eccentricity": 0.0004791,
        "meta_inclination": 51.6292,
        "meta_ra_of_asc_node": 107.4546,
        "meta_arg_of_pericenter": 283.3796,
        "meta_mean_anomaly": 76.6665,
        "meta_ephemeris_type": 0,
        "meta_classification_type": "U",
        "meta_norad_cat_id": 65731,
        "meta_element_set_no": 999,
        "meta_rev_at_epoch": 1406,
        "meta_bstar": 0.00083587979,
        "meta_mean_motion_dot": 0.00090673,
        "meta_mean_motion_ddot": 0,
        "tle_line1": "1 65731U 98067XK  25352.60392310  .00090673  00000+0  83588-3 0  9992",
        "tle_line2": "2 65731  51.6292 107.4546 0004791 283.3796  76.6665 15.66848038 14061"
      },
      "geometry": {
        "type": "Point",
        "coordinates": [
          93.32526850616593,
          -14.934917656617078
        ]
      }
    },
    {
      "type": "Feature",
      "properties": {
        "norad_id": 65732,
        "name": "RSP-03",
        "group": "stations",
        "lat": 17.504785820117263,
        "lon": 119.14966725135096,
        "alt_km": 356.6538313875126,
        "timestamp": "2025-12-18T23:35:47.807788+00:00",
        "meta_object_name": "RSP-03",
        "meta_object_id": "1998-067XL",
        "meta_epoch": "2025-12-18T12:48:30.107520",
        "meta_mean_motion": 15.70075461,
        "meta_eccentricity": 0.00056659,
        "meta_inclination": 51.6263,
        "meta_ra_of_asc_node": 106.9735,
        "meta_arg_of_pericenter": 289.7816,
        "meta_mean_anomaly": 70.257,
        "meta_ephemeris_type": 0,
        "meta_classification_type": "U",
        "meta_norad_cat_id": 65732,
        "meta_element_set_no": 999,
        "meta_rev_at_epoch": 1407,
        "meta_bstar": 0.00097504064,
        "meta_mean_motion_dot": 0.00121384,
        "meta_mean_motion_ddot": 0,
        "tle_line1": "1 65732U 98067XL  25352.53368180  .00121384  00000+0  97504-3 0  9990",
        "tle_line2": "2 65732  51.6263 106.9735 0005665 289.7816  70.2570 15.70075461 14071"
      },
      "geometry": {
        "type": "Point",
        "coordinates": [
          119.14966725135096,
          17.504785820117263
        ]
      }
    },
    {
      "type": "Feature",
      "properties": {
        "norad_id": 65733,
        "name": "GHS-01",
        "group": "stations",
        "lat": 51.51826260845525,
        "lon": -162.3989558134721,
        "alt_km": 333.9967487721733,
        "timestamp": "2025-12-18T23:35:47.807799+00:00",
        "meta_object_name": "GHS-01",
        "meta_object_id": "1998-067XM",
        "meta_epoch": "2025-12-18T14:04:56.666208",
        "meta_mean_motion": 15.7735283,
        "meta_eccentricity": 0.00079645,
        "meta_inclination": 51.6277,
        "meta_ra_of_asc_node": 105.074,
        "meta_arg_of_pericenter": 318.3708,
        "meta_mean_anomaly": 41.6685,
        "meta_ephemeris_type": 0,
        "meta_classification_type": "U",
        "meta_norad_cat_id": 65733,
        "meta_element_set_no": 999,
        "meta_rev_at_epoch": 1410,
        "meta_bstar": 0.0012611153,
        "meta_mean_motion_dot": 0.00217764,
        "meta_mean_motion_ddot": 0,
        "tle_line1": "1 65733U 98067XM  25352.58676697  .00217764  00000+0  12611-2 0  9994",
        "tle_line2": "2 65733  51.6277 105.0740 0007964 318.3708  41.6685 15.77352830 14104"
      },
      "geometry": {
        "type": "Point",
        "coordinates": [
          -162.3989558134721,
          51.51826260845525
        ]
      }
    },
    {
      "type": "Feature",
      "properties": {
        "norad_id": 65941,
        "name": "YOTSUBA-KULOVER",
        "group": "stations",
        "lat": -32.796210068006104,
        "lon": 77.87444340578064,
        "alt_km": 389.5590463101971,
        "timestamp": "2025-12-18T23:35:47.807811+00:00",
        "meta_object_name": "YOTSUBA-KULOVER",
        "meta_object_id": "1998-067XN",
        "meta_epoch": "2025-12-18T09:56:54.884832",
        "meta_mean_motion": 15.60208015,
        "meta_eccentricity": 0.00016606,
        "meta_inclination": 51.6285,
        "meta_ra_of_asc_node": 111.4386,
        "meta_arg_of_pericenter": 311.4961,
        "meta_mean_anomaly": 48.5889,
        "meta_ephemeris_type": 0,
        "meta_classification_type": "U",
        "meta_norad_cat_id": 65941,
        "meta_element_set_no": 999,
        "meta_rev_at_epoch": 1074,
        "meta_bstar": 0.0007945309,
        "meta_mean_motion_dot": 0.00066041,
        "meta_mean_motion_ddot": 0,
        "tle_line1": "1 65941U 98067XN  25352.41452413  .00066041  00000+0  79453-3 0  9993",
        "tle_line2": "2 65941  51.6285 111.4386 0001660 311.4961  48.5889 15.60208015 10748"
      },
      "geometry": {
        "type": "Point",
        "coordinates": [
          77.87444340578064,
          -32.796210068006104
        ]
      }
    },
    {
      "type": "Feature",
      "properties": {
        "norad_id": 65942,
        "name": "BOTAN",
        "group": "stations",
        "lat": 5.717476086986674,
        "lon": 112.26911634518726,
        "alt_km": 375.19416434514096,
        "timestamp": "2025-12-18T23:35:47.807822+00:00",
        "meta_object_name": "BOTAN",
        "meta_object_id": "1998-067XP",
        "meta_epoch": "2025-12-18T09:45:54.006048",
        "meta_mean_motion": 15.64050786,
        "meta_eccentricity": 0.00028482,
        "meta_inclination": 51.6278,
        "meta_ra_of_asc_node": 110.6371,
        "meta_arg_of_pericenter": 287.2475,
        "meta_mean_anomaly": 72.8208,
        "meta_ephemeris_type": 0,
        "meta_classification_type": "U",
        "meta_norad_cat_id": 65942,
        "meta_element_set_no": 999,
        "meta_rev_at_epoch": 1075,
        "meta_bstar": 0.0010814457,
        "meta_mean_motion_dot": 0.00105165,
        "meta_mean_motion_ddot": 0,
        "tle_line1": "1 65942U 98067XP  25352.40687507  .00105165  00000+0  10814-2 0  9993",
        "tle_line2": "2 65942  51.6278 110.6371 0002848 287.2475  72.8208 15.64050786 10755"
      },
      "geometry": {
        "type": "Point",
        "coordinates": [
          112.26911634518726,
          5.717476086986674
        ]
      }
    },
    {
      "type": "Feature",
      "properties": {
        "norad_id": 65943,
        "name": "E-KAGAKU-1",
        "group": "stations",
        "lat": -33.17899705895031,
        "lon": 77.3800860662899,
        "alt_km": 390.2942071225607,
        "timestamp": "2025-12-18T23:35:47.807832+00:00",
        "meta_object_name": "E-KAGAKU-1",
        "meta_object_id": "1998-067XQ",
        "meta_epoch": "2025-12-18T08:24:49.666176",
        "meta_mean_motion": 15.60193795,
        "meta_eccentricity": 0.00013451,
        "meta_inclination": 51.6302,
        "meta_ra_of_asc_node": 111.7666,
        "meta_arg_of_pericenter": 249.8249,
        "meta_mean_anomaly": 110.26,
        "meta_ephemeris_type": 0,
        "meta_classification_type": "U",
        "meta_norad_cat_id": 65943,
        "meta_element_set_no": 999,
        "meta_rev_at_epoch": 1073,
        "meta_bstar": 0.00084619625,
        "meta_mean_motion_dot": 0.00070368,
        "meta_mean_motion_ddot": 0,
        "tle_line1": "1 65943U 98067XQ  25352.35057484  .00070368  00000+0  84620-3 0  9996",
        "tle_line2": "2 65943  51.6302 111.7666 0001345 249.8249 110.2600 15.60193795 10732"
      },
      "geometry": {
        "type": "Point",
        "coordinates": [
          77.3800860662899,
          -33.17899705895031
        ]
      }
    },
    {
      "type": "Feature",
      "properties": {
        "norad_id": 66052,
        "name": "HRC MONOBLOCK CAMERA",
        "group": "stations",
        "lat": 3.27696934274048,
        "lon": -72.23566360165974,
        "alt_km": 402.24495273830325,
        "timestamp": "2025-12-18T23:35:47.807843+00:00",
        "meta_object_name": "HRC MONOBLOCK CAMERA",
        "meta_object_id": "1998-067XR",
        "meta_epoch": "2025-12-18T13:35:12.759360",
        "meta_mean_motion": 15.54541536,
        "meta_eccentricity": 0.00026651,
        "meta_inclination": 51.6295,
        "meta_ra_of_asc_node": 112.4463,
        "meta_arg_of_pericenter": 209.9412,
        "meta_mean_anomaly": 150.1426,
        "meta_ephemeris_type": 0,
        "meta_classification_type": "U",
        "meta_norad_cat_id": 66052,
        "meta_element_set_no": 999,
        "meta_rev_at_epoch": 974,
        "meta_bstar": 0.00049339949,
        "meta_mean_motion_dot": 0.00032816,
        "meta_mean_motion_ddot": 0,
        "tle_line1": "1 66052U 98067XR  25352.56611990  .00032816  00000+0  49340-3 0  9995",
        "tle_line2": "2 66052  51.6295 112.4463 0002665 209.9412 150.1426 15.54541536  9744"
      },
      "geometry": {
        "type": "Point",
        "coordinates": [
          -72.23566360165974,
          3.27696934274048
        ]
      }
    }
  ]
}